NORAD_CAT_ID,OBJECT_NAME,OBJECT_TYPE,EPOCH,MEAN_MOTION,ECCENTRICITY,INCLINATION,RA_OF_ASC_NODE,ARG_OF_PERICENTER,MEAN_ANOMALY,BSTAR,MEAN_MOTION_DOT,MEAN_MOTION_DDOT,TLE_LINE0,TLE_LINE1,TLE_LINE2,SEMIMAJOR_AXIS,PERIOD,APOGEE,PERIGEE,DECAYED
53596.0,STARLINK-4668,PAYLOAD,2023-12-25 23:41:55,15.08929072,0.0001477,53.216,256.4654,77.3468,282.7689,0.0013976,0.00022079,0.0,0 STARLINK-4668,1 53596U 22104J   23359.98744790  .00022079  00000-0  13976-2 0  9995,2 53596  53.2160 256.4654 0001477  77.3468 282.7689 15.08929072 74133,6917.608,95.432,540.495,538.451,0.0
53596.0,STARLINK-4668,PAYLOAD,2023-12-26 20:21:50,15.08964201,0.0001396,53.2156,252.6002,83.0339,277.0812,0.0013277,0.00020978,0.0,0 STARLINK-4668,1 53596U 22104J   23360.84850617  .00020978  00000-0  13277-2 0  9998,2 53596  53.2156 252.6002 0001396  83.0339 277.0812 15.08964201 73579,6917.501,95.43,540.331,538.4,0.0
53596.0,STARLINK-4668,PAYLOAD,2023-12-26 21:57:13,15.08965327,0.0001392,53.2156,252.3028,83.4055,276.7096,0.0012339,0.00019472,0.0,0 STARLINK-4668,1 53596U 22104J   23360.91474062  .00019472  00000-0  12339-2 0  9997,2 53596  53.2156 252.3028 0001392  83.4055 276.7096 15.08965327 74277,6917.497,95.43,540.325,538.399,0.0
53596.0,STARLINK-4668,PAYLOAD,2023-12-27 02:43:21,15.08972995,0.0001392,53.2155,251.4111,83.7059,276.4092,0.0012342,0.0001948,0.0,0 STARLINK-4668,1 53596U 22104J   23361.11344342  .00019480  00000-0  12342-2 0  9990,2 53596  53.2155 251.4111 0001392  83.7059 276.4092 15.08972995 74302,6917.474,95.429,540.302,538.376,0.0
53596.0,STARLINK-4668,PAYLOAD,2023-12-27 21:47:52,15.08997883,0.0001412,53.2157,247.8412,94.2135,265.9018,0.0010138,0.00015953,0.0,0 STARLINK-4668,1 53596U 22104J   23361.90824554  .00015953  00000-0  10138-2 0  9997,2 53596  53.2157 247.8412 0001412  94.2135 265.9018 15.08997883 74429,6917.398,95.428,540.24,538.286,0.0
53596.0,STARLINK-4668,PAYLOAD,2023-12-27 23:23:14,15.09000569,0.0001424,53.2157,247.5437,96.6857,263.4297,0.0010337,0.00016274,0.0,0 STARLINK-4668,1 53596U 22104J   23361.97447827  .00016274  00000-0  10337-2 0  9996,2 53596  53.2157 247.5437 0001424  96.6857 263.4297 15.09000569 73746,6917.39,95.427,540.24,538.27,0.0
53596.0,STARLINK-4668,PAYLOAD,2023-12-28 20:03:07,15.09023543,0.0001451,53.2154,243.6774,105.2283,254.887,0.00087105,0.00013672,0.0,0 STARLINK-4668,1 53596U 22104J   23362.83549902  .00013672  00000-0  87105-3 0  9996,2 53596  53.2154 243.6774 0001451 105.2283 254.8870 15.09023543 74563,6917.319,95.426,540.188,538.181,0.0
53596.0,STARLINK-4668,PAYLOAD,2023-12-28 23:13:51,15.09027781,0.0001466,53.2156,243.0827,104.4476,255.6679,0.00086074,0.00013508,0.0,0 STARLINK-4668,1 53596U 22104J   23362.96796216  .00013508  00000-0  86074-3 0  9994,2 53596  53.2156 243.0827 0001466 104.4476 255.6679 15.09027781 74585,6917.306,95.426,540.186,538.157,0.0
53596.0,STARLINK-4668,PAYLOAD,2023-12-29 19:53:42,15.09046721,0.0001495,53.2153,239.2192,106.6498,253.4659,0.00072941,0.00011405,0.0,0 STARLINK-4668,1 53596U 22104J   23363.82896942  .00011405  00000-0  72941-3 0  9999,2 53596  53.2153 239.2192 0001495 106.6498 253.4659 15.09046721 74022,6917.249,95.424,540.148,538.079,0.0
53596.0,STARLINK-4668,PAYLOAD,2023-12-29 21:29:05,15.09047542,0.0001488,53.2152,238.9216,106.4399,253.6757,0.00068782,0.00010738,0.0,0 STARLINK-4668,1 53596U 22104J   23363.89520017  .00010738  00000-0  68782-3 0  9999,2 53596  53.2152 238.9216 0001488 106.4399 253.6757 15.09047542 74724,6917.246,95.424,540.14,538.082,0.0
53596.0,STARLINK-4668,PAYLOAD,2023-12-30 02:15:12,15.09051316,0.0001416,53.2148,238.0277,101.5307,258.5844,0.00065932,0.00010281,0.0,0 STARLINK-4668,1 53596U 22104J   23364.09389249  .00010281  00000-0  65932-3 0  9999,2 53596  53.2148 238.0277 0001416 101.5307 258.5844 15.09051316 74751,6917.235,95.424,540.079,538.12,0.0
53596.0,STARLINK-4668,PAYLOAD,2023-12-30 21:19:39,15.09065247,0.000139,53.2142,234.4584,102.5117,257.603,0.00054877,8.51e-05,0.0,0 STARLINK-4668,1 53596U 22104J   23364.88865628  .00008510  00000-0  54877-3 0  9994,2 53596  53.2142 234.4584 0001390 102.5117 257.6030 15.09065247 74875,6917.192,95.423,540.018,538.095,0.0
53596.0,STARLINK-4668,PAYLOAD,2023-12-31 00:30:24,15.09066631,0.0001322,53.2139,233.8631,94.5341,265.5802,0.00051021,7.891e-05,0.0,0 STARLINK-4668,1 53596U 22104J   23365.02111671  .00007891  00000-0  51021-3 0  9992,2 53596  53.2139 233.8631 0001322  94.5341 265.5802 15.09066631 74201,6917.188,95.423,539.967,538.138,0.0
53596.0,STARLINK-4668,PAYLOAD,2023-12-31 21:10:13,15.09078467,0.0001333,53.2138,229.9965,92.7384,267.376,0.00045742,7.047e-05,0.0,0 STARLINK-4668,1 53596U 22104J   23365.88210320  .00007047  00000-0  45742-3 0  9993,2 53596  53.2138 229.9965 0001333  92.7384 267.3760 15.09078467 75029,6917.152,95.422,539.939,538.095,0.0
53596.0,STARLINK-4668,PAYLOAD,2024-01-01 14:39:18,15.0908961,0.0001361,53.2139,226.7241,90.2233,269.8916,0.00049422,7.64e-05,0.0,0 STARLINK-4668,1 53596U 22104J   24001.61062503  .00007640  00000-0  49422-3 0  9998,2 53596  53.2139 226.7241 0001361  90.2233 269.8916 15.09089610 75133,6917.118,95.422,539.924,538.041,0.0
53596.0,STARLINK-4668,PAYLOAD,2024-01-01 19:25:24,15.09092376,0.0001345,53.2139,225.8316,90.7956,269.319,0.00050404,7.798e-05,0.0,0 STARLINK-4668,1 53596U 22104J   24001.80931186  .00007798  00000-0  50404-3 0  9997,2 53596  53.2139 225.8316 0001345  90.7956 269.3190 15.09092376 74473,6917.109,95.422,539.904,538.044,0.0
53596.0,STARLINK-4668,PAYLOAD,2024-01-01 22:36:08,15.09095678,0.0001346,53.214,225.2368,89.6594,270.4552,0.0005526,8.579e-05,0.0,0 STARLINK-4668,1 53596U 22104J   24001.94176934  .00008579  00000-0  55260-3 0  9997,2 53596  53.2140 225.2368 0001346  89.6594 270.4552 15.09095678 75184,6917.099,95.421,539.895,538.033,0.0
53596.0,STARLINK-4668,PAYLOAD,2024-01-02 20:51:18,15.09108048,0.0001424,53.2146,221.0732,81.9097,278.2057,0.00050034,7.742e-05,0.0,0 STARLINK-4668,1 53596U 22104J   24002.86896875  .00007742  00000-0  50034-3 0  9997,2 53596  53.2146 221.0732 0001424  81.9097 278.2057 15.09108048 75327,6917.061,95.421,539.911,537.941,0.0
53596.0,STARLINK-4668,PAYLOAD,2024-01-03 00:02:03,15.09110715,0.0001407,53.2145,220.478,83.8731,276.2421,0.00051843,8.033e-05,0.0,0 STARLINK-4668,1 53596U 22104J   24003.00142466  .00008033  00000-0  51843-3 0  9997,2 53596  53.2145 220.4780 0001407  83.8731 276.2421 15.09110715 74651,6917.053,95.42,539.891,537.945,0.0
53596.0,STARLINK-4668,PAYLOAD,2024-01-03 20:41:50,15.0912326,0.0001352,53.2147,216.6106,85.2615,274.8532,0.00048143,7.441e-05,0.0,0 STARLINK-4668,1 53596U 22104J   24003.86238553  .00007441  00000-0  48143-3 0  9995,2 53596  53.2147 216.6106 0001352  85.2615 274.8532 15.09123260 75475,6917.015,95.42,539.815,537.945,0.0
53596.0,STARLINK-4668,PAYLOAD,2024-01-03 23:52:34,15.09124674,0.0001365,53.2147,216.016,84.8414,275.2734,0.00046839,7.232e-05,0.0,0 STARLINK-4668,1 53596U 22104J   24003.99484071  .00007232  00000-0  46839-3 0  9995,2 53596  53.2147 216.0160 0001365  84.8414 275.2734 15.09124674 75496,6917.01,95.42,539.82,537.931,0.0
53596.0,STARLINK-4668,PAYLOAD,2024-01-04 20:32:20,15.09135035,0.0001405,53.2148,212.1493,91.8023,268.313,0.0004048,6.212e-05,0.0,0 STARLINK-4668,1 53596U 22104J   24004.85579405  .00006212  00000-0  40480-3 0  9990,2 53596  53.2148 212.1493 0001405  91.8023 268.3130 15.09135035 74936,6916.979,95.419,539.816,537.872,0.0
53596.0,STARLINK-4668,PAYLOAD,2024-01-05 14:01:24,15.09116798,0.0001564,53.2153,208.877,92.0393,268.0778,-1.0074e-05,-4.5e-06,0.0,0 STARLINK-4668,1 53596U 22104J   24005.58430571 -.00000450  00000-0 -10074-4 0  9998,2 53596  53.2153 208.8770 0001564  92.0393 268.0778 15.09116798 75730,6917.034,95.42,539.981,537.818,0.0
53596.0,STARLINK-4668,PAYLOAD,2024-01-05 20:22:52,15.09110448,0.0001404,53.2149,207.685,101.6948,258.4202,-0.00012218,-2.247e-05,0.0,0 STARLINK-4668,1 53596U 22104J   24005.84921833 -.00002247  00000-0 -12218-3 0  9990,2 53596  53.2149 207.6850 0001404 101.6948 258.4202 15.09110448 75086,6917.054,95.42,539.89,537.948,0.0
53596.0,STARLINK-4668,PAYLOAD,2024-01-06 12:16:33,15.09107621,0.000147,53.215,204.7112,121.8648,238.2487,4.3826e-05,4.14e-06,0.0,0 STARLINK-4668,1 53596U 22104J   24006.51150301  .00000414  00000-0  43826-4 0  9991,2 53596  53.2150 204.7112 0001470 121.8648 238.2487 15.09107621 75878,6917.062,95.421,539.944,537.911,0.0
53596.0,STARLINK-4668,PAYLOAD,2024-01-06 18:38:02,15.09108871,0.0001595,53.2151,203.5229,113.6863,246.4297,0.00013718,1.911e-05,0.0,0 STARLINK-4668,1 53596U 22104J   24006.77641680  .00001911  00000-0  13718-3 0  9993,2 53596  53.2151 203.5229 0001595 113.6863 246.4297 15.09108871 75914,6917.059,95.421,540.027,537.82,0.0
53596.0,STARLINK-4668,PAYLOAD,2024-01-07 20:03:56,15.09113956,0.0001397,53.2143,198.7642,95.8198,264.2953,0.00027375,4.104e-05,0.0,0 STARLINK-4668,1 53596U 22104J   24007.83606820  .00004104  00000-0  27375-3 0  9999,2 53596  53.2143 198.7642 0001397  95.8198 264.2953 15.09113956 75389,6917.043,95.42,539.874,537.942,0.0
53596.0,STARLINK-4668,PAYLOAD,2024-01-07 21:39:18,15.09114489,0.0001402,53.2143,198.4667,95.0452,265.07,0.00023292,3.448e-05,0.0,0 STARLINK-4668,1 53596U 22104J   24007.90229579  .00003448  00000-0  23292-3 0  9993,2 53596  53.2143 198.4667 0001402  95.0452 265.0700 15.09114489 76084,6917.042,95.42,539.876,537.937,0.0
53596.0,STARLINK-4668,PAYLOAD,2024-01-08 11:57:37,15.09119085,0.000137,53.2141,195.7895,94.3011,265.8137,0.00027928,4.193e-05,0.0,0 STARLINK-4668,1 53596U 22104J   24008.49834664  .00004193  00000-0  27928-3 0  9993,2 53596  53.2141 195.7895 0001370  94.3011 265.8137 15.09119085 76171,6917.027,95.42,539.84,537.945,0.0
53596.0,STARLINK-4668,PAYLOAD,2024-01-08 19:54:27,15.09123786,0.0001372,53.2143,194.3027,93.2407,266.8743,0.0003293,4.997e-05,0.0,0 STARLINK-4668,1 53596U 22104J   24008.82948443  .00004997  00000-0  32930-3 0  9992,2 53596  53.2143 194.3027 0001372  93.2407 266.8743 15.09123786 76227,6917.013,95.42,539.827,537.929,0.0
